EUTELSAT 8 WEST B       
1 40875U 15039B   25214.40241243 -.00000056  00000+0  00000+0 0  9996
2 40875   0.0648  12.7303 0003618 118.6426 316.7264  1.00271354 36467
EUTELSAT 9B             
1 41310U 16005A   25215.33368715  .00000072  00000+0  00000+0 0  9999
2 41310   0.0404  69.7578 0001395  70.9341 300.5684  1.00273115 34927
EUTELSAT 65 WEST A      
1 41382U 16014A   25215.41037324 -.00000267  00000+0  00000+0 0  9993
2 41382   0.0488   4.8416 0002321 120.3097 269.6142  1.00273484 34469
EUTELSAT 117 WEST B     
1 41589U 16038B   25215.38004821 -.00000002  00000+0  00000+0 0  9997
2 41589   0.0258 102.6753 0000447 127.4771 101.8510  1.00272997 33517
EUTELSAT 172B           
1 42741U 17029B   25214.86632487  .00000004  00000+0  00000+0 0  9997
2 42741   0.0198 154.4518 0000300 271.8644   9.2603  1.00271925 30528
EUTELSAT 7C             
1 44334U 19034B   25215.04775697  .00000058  00000+0  00000+0 0  9996
2 44334   0.0745 190.8423 0003600 287.1834 218.0280  1.00273291 22948
EUTELSAT 5 WEST B       
1 44624U 19067A   25215.33091381 -.00000032  00000+0  00000+0 0  9990
2 44624   0.0989 306.0789 0003177 184.0813 296.1222  1.00271363 21240
EUTELSAT KONNECT        
1 45027U 20005B   25215.04784363  .00000059  00000+0  00000+0 0  9997
2 45027   0.0568  94.8538 0001486  87.8630 153.5768  1.00273073 21132
